[{"OBJECT_NAME":"LIZZIESAT-2 (LS-2)","OBJECT_ID":"2024-247G","EPOCH":"2026-03-09T11:47:37.199328","MEAN_MOTION":15.28222796,"ECCENTRICITY":0.00040927,"INCLINATION":44.9909,"RA_OF_ASC_NODE":117.0823,"ARG_OF_PERICENTER":327.5136,"MEAN_ANOMALY":32.5495,"EPHEMERIS_TYPE":0,"CLASSIFICATION_TYPE":"U","NORAD_CAT_ID":62383,"ELEMENT_SET_NO":999,"REV_AT_EPOCH":6771,"BSTAR":0.00034516624,"MEAN_MOTION_DOT":9.388e-5,"MEAN_MOTION_DDOT":0},{"OBJECT_NAME":"STARLINK-33691","OBJECT_ID":"2025-070C","EPOCH":"2026-03-09T13:54:47.337120","MEAN_MOTION":15.27606595,"ECCENTRICITY":0.0002174,"INCLINATION":43.0015,"RA_OF_ASC_NODE":260.0728,"ARG_OF_PERICENTER":299.0633,"MEAN_ANOMALY":61,"EPHEMERIS_TYPE":0,"CLASSIFICATION_TYPE":"U","NORAD_CAT_ID":63462,"ELEMENT_SET_NO":999,"REV_AT_EPOCH":5291,"BSTAR":0.0012258,"MEAN_MOTION_DOT":0.00033652,"MEAN_MOTION_DDOT":0}]
